IRIDIUM 159             
1 43578U 18061K   24328.84859264  .00000177  00000+0  56216-4 0  9996
2 43578  86.3933 295.0367 0002171  89.1313 271.0132 14.34218704331635
IRIDIUM 180             
1 43922U 19002A   24329.26670407  .00000634  00000+0  21940-3 0  9995
2 43922  86.3996 231.7203 0002169  83.6006 276.5436 14.34223430307348
IRIDIUM 176             
1 43923U 19002B   24328.70603876  .00002616  00000+0  41077-3 0  9995
2 43923  86.6120 231.9631 0002726  91.4654 268.6876 14.72260324315314
IRIDIUM 168             
1 43924U 19002C   24329.26035634  .00000486  00000+0  16653-3 0  9994
2 43924  86.4002 231.7839 0002091  80.1334 280.0098 14.34217119307288
IRIDIUM 173             
1 43925U 19002D   24329.17790416  .00000008  00000+0 -41026-5 0  9996
2 43925  86.3996 231.7306 0002076  81.2825 278.8606 14.34216837307263
IRIDIUM 169             
1 43926U 19002E   24328.89494937  .00000884  00000+0  28237-3 0  9992
2 43926  86.4215 263.4702 0003987  70.7966 289.3664 14.38614737308236
IRIDIUM 172             
1 43927U 19002F   24329.17154835  .00000700  00000+0  24267-3 0  9991
2 43927  86.3996 231.7397 0002133  85.8082 274.3358 14.34225726307266
IRIDIUM 175             
1 43928U 19002G   24328.49672144  .00002113  00000+0  33115-3 0  9996
2 43928  86.1544 196.2470 0002618  51.0233 309.1216 14.72243816315274
